NORAD_CAT_ID,OBJECT_NAME,OBJECT_TYPE,EPOCH,MEAN_MOTION,ECCENTRICITY,INCLINATION,RA_OF_ASC_NODE,ARG_OF_PERICENTER,MEAN_ANOMALY,BSTAR,MEAN_MOTION_DOT,MEAN_MOTION_DDOT,TLE_LINE0,TLE_LINE1,TLE_LINE2,SEMIMAJOR_AXIS,PERIOD,APOGEE,PERIGEE,DECAYED
50191.0,STARLINK-3273,PAYLOAD,2024-01-17 14:47:30,15.08833256,0.0001518,53.2171,169.987,62.7096,297.405,8.592e-05,1.079e-05,0.0,0 STARLINK-3273,1 50191U 21125AM  24017.61632292  .00001079  00000-0  85920-4 0  9997,2 50191  53.2171 169.9870 0001518  62.7096 297.4050 15.08833256118381,6917.901,95.438,540.816,538.716,0.0
50191.0,STARLINK-3273,PAYLOAD,2024-01-17 16:22:54,15.08751245,0.0001569,53.217,169.6902,81.1678,278.9491,0.0012109,0.00018989,0.0,0 STARLINK-3273,1 50191U 21125AM  24017.68257831  .00018989  00000-0  12109-2 0  9991,2 50191  53.2170 169.6902 0001569  81.1678 278.9491 15.08751245115310,6918.152,95.443,541.102,538.931,0.0
50191.0,STARLINK-3273,PAYLOAD,2024-01-18 13:02:56,15.08817677,0.0001555,53.2174,165.8246,73.3126,286.8036,-9.124e-05,-1.739e-05,0.0,0 STARLINK-3273,1 50191U 21125AM  24018.54370734 -.00001739  00000-0 -91240-4 0  9997,2 50191  53.2174 165.8246 0001555  73.3126 286.8036 15.08817677115448,6917.949,95.439,540.889,538.738,0.0
50191.0,STARLINK-3273,PAYLOAD,2024-01-18 14:38:19,15.08817565,0.0001572,53.2169,165.5261,75.9338,284.1829,-0.00010111,-1.896e-05,0.0,0 STARLINK-3273,1 50191U 21125AM  24018.60994837 -.00001896  00000-0 -10111-3 0  9991,2 50191  53.2169 165.5261 0001572  75.9338 284.1829 15.08817565118538,6917.949,95.439,540.901,538.726,0.0
50191.0,STARLINK-3273,PAYLOAD,2024-01-18 16:13:42,15.08817656,0.0001598,53.2167,165.2283,74.6096,285.5072,-0.0001029,-1.924e-05,0.0,0 STARLINK-3273,1 50191U 21125AM  24018.67618926 -.00001924  00000-0 -10290-3 0  9990,2 50191  53.2167 165.2283 0001598  74.6096 285.5072 15.08817656118549,6917.949,95.439,540.919,538.708,0.0
50191.0,STARLINK-3273,PAYLOAD,2024-01-19 09:42:56,15.08836069,0.0001826,53.2175,161.9538,59.5584,300.5588,6.7446e-05,7.85e-06,0.0,0 STARLINK-3273,1 50191U 21125AM  24019.40481689  .00000785  00000-0  67446-4 0  9994,2 50191  53.2175 161.9538 0001826  59.5584 300.5588 15.08836069115571,6917.892,95.438,541.021,538.494,0.0
50191.0,STARLINK-3273,PAYLOAD,2024-01-19 14:29:04,15.08855455,0.000161,53.2174,161.0618,84.2956,275.822,0.00019553,2.826e-05,0.0,0 STARLINK-3273,1 50191U 21125AM  24019.60351982  .00002826  00000-0  19553-3 0  9991,2 50191  53.2174 161.0618 0001610  84.2956 275.8220 15.08855455118681,6917.833,95.437,540.812,538.584,0.0
50191.0,STARLINK-3273,PAYLOAD,2024-01-19 16:04:27,15.08849013,0.0002386,53.2172,160.7649,53.4864,306.6348,0.00029978,4.487e-05,0.0,0 STARLINK-3273,1 50191U 21125AM  24019.66976417  .00004487  00000-0  29978-3 0  9990,2 50191  53.2172 160.7649 0002386  53.4864 306.6348 15.08849013115613,6917.853,95.437,541.368,538.067,0.0
50191.0,STARLINK-3273,PAYLOAD,2024-01-20 14:19:51,15.08843535,0.000164,53.2177,156.6022,112.8228,247.2937,0.00023671,3.482e-05,0.0,0 STARLINK-3273,1 50191U 21125AM  24020.59712627  .00003482  00000-0  23671-3 0  9993,2 50191  53.2177 156.6022 0001640 112.8228 247.2937 15.08843535118837,6917.87,95.437,540.869,538.6,0.0
50191.0,STARLINK-3273,PAYLOAD,2024-01-20 19:06:00,15.08845123,0.0001536,53.2175,155.7079,102.6888,257.4276,0.00023935,3.524e-05,0.0,0 STARLINK-3273,1 50191U 21125AM  24020.79584473  .00003524  00000-0  23935-3 0  9991,2 50191  53.2175 155.7079 0001536 102.6888 257.4276 15.08845123115785,6917.865,95.437,540.792,538.667,0.0
50191.0,STARLINK-3273,PAYLOAD,2024-01-21 12:35:17,15.08835239,0.0001472,53.2179,152.4417,86.3605,273.7555,-0.00020565,-3.559e-05,0.0,0 STARLINK-3273,1 50191U 21125AM  24021.52450582 -.00003559  00000-0 -20565-3 0  9992,2 50191  53.2179 152.4417 0001472  86.3605 273.7555 15.08835239115893,6917.895,95.438,540.778,538.742,0.0
50191.0,STARLINK-3273,PAYLOAD,2024-01-21 15:46:03,15.08831227,0.0001487,53.2183,151.849,87.1256,272.9906,-0.00021626,-3.727e-05,0.0,0 STARLINK-3273,1 50191U 21125AM  24021.65698928 -.00003727  00000-0 -21626-3 0  9990,2 50191  53.2183 151.8490 0001487  87.1256 272.9906 15.08831227118997,6917.907,95.438,540.801,538.744,0.0
50191.0,STARLINK-3273,PAYLOAD,2024-01-22 15:36:50,15.08846662,0.0001881,53.2183,147.386,71.148,288.9716,-0.00010513,-1.961e-05,0.0,0 STARLINK-3273,1 50191U 21125AM  24022.65058115 -.00001961  00000-0 -10513-3 0  9990,2 50191  53.2183 147.3860 0001881  71.1480 288.9716 15.08846662116069,6917.86,95.437,541.026,538.424,0.0
50191.0,STARLINK-3273,PAYLOAD,2024-01-23 15:27:35,15.08874294,0.0001902,53.2181,142.9261,78.6353,281.4853,1.162e-05,-1.03e-06,0.0,0 STARLINK-3273,1 50191U 21125AM  24023.64415612 -.00000103  00000-0  11620-4 0  9996,2 50191  53.2181 142.9261 0001902  78.6353 281.4853 15.08874294116217,6917.776,95.435,540.956,538.325,0.0
50191.0,STARLINK-3273,PAYLOAD,2024-01-24 12:07:37,15.08847384,0.0001439,53.2173,139.0576,84.256,275.8596,-3.1947e-05,-7.96e-06,0.0,0 STARLINK-3273,1 50191U 21125AM  24024.50529421 -.00000796  00000-0 -31947-4 0  9999,2 50191  53.2173 139.0576 0001439  84.2560 275.8596 15.08847384116347,6917.858,95.437,540.718,538.727,0.0
50191.0,STARLINK-3273,PAYLOAD,2024-01-24 13:43:00,15.08847971,0.0001507,53.2174,138.7598,83.8009,276.3155,-2.3435e-05,-6.61e-06,0.0,0 STARLINK-3273,1 50191U 21125AM  24024.57153362 -.00000661  00000-0 -23435-4 0  9997,2 50191  53.2174 138.7598 0001507  83.8009 276.3155 15.08847971119439,6917.856,95.437,540.764,538.679,0.0
50191.0,STARLINK-3273,PAYLOAD,2024-01-25 13:33:47,15.08851851,0.0001531,53.2173,134.3011,83.5661,276.5505,-0.00012759,-2.319e-05,0.0,0 STARLINK-3273,1 50191U 21125AM  24025.56513041 -.00002319  00000-0 -12759-3 0  9999,2 50191  53.2173 134.3011 0001531  83.5661 276.5505 15.08851851119587,6917.844,95.437,540.768,538.65,0.0
50191.0,STARLINK-3273,PAYLOAD,2024-01-26 11:49:12,15.08827286,0.0001641,53.2175,130.1345,109.1342,250.9828,-6.085e-07,-2.98e-06,0.0,0 STARLINK-3273,1 50191U 21125AM  24026.49250370 -.00000298  00000-0 -60850-6 0  9997,2 50191  53.2175 130.1345 0001641 109.1342 250.9828 15.08827286116649,6917.919,95.438,540.919,538.649,0.0
50191.0,STARLINK-3273,PAYLOAD,2024-01-26 13:24:35,15.08828173,0.0001663,53.2177,129.8442,115.3532,244.7632,1.5247e-05,-4.5e-07,0.0,0 STARLINK-3273,1 50191U 21125AM  24026.55874347 -.00000045  00000-0  15247-4 0  9997,2 50191  53.2177 129.8442 0001663 115.3532 244.7632 15.08828173119731,6917.917,95.438,540.932,538.631,0.0
50191.0,STARLINK-3273,PAYLOAD,2024-01-27 13:15:21,15.08855763,0.0001428,53.2178,125.3844,103.5494,256.5657,0.00013917,1.929e-05,0.0,0 STARLINK-3273,1 50191U 21125AM  24027.55232720  .00001929  00000-0  13917-3 0  9993,2 50191  53.2178 125.3844 0001428 103.5494 256.5657 15.08855763116802,6917.832,95.437,540.685,538.709,0.0
50191.0,STARLINK-3273,PAYLOAD,2024-01-28 11:30:45,15.0884264,0.0001419,53.2177,121.2214,113.8158,246.2983,9.7078e-05,1.258e-05,0.0,0 STARLINK-3273,1 50191U 21125AM  24028.47969724  .00001258  00000-0  97078-4 0  9992,2 50191  53.2177 121.2214 0001419 113.8158 246.2983 15.08842640116941,6917.872,95.437,540.719,538.756,0.0
50191.0,STARLINK-3273,PAYLOAD,2024-01-29 11:21:32,15.08853943,0.0001406,53.2178,116.7582,103.2765,256.8384,2.0266e-05,3.5e-07,0.0,0 STARLINK-3273,1 50191U 21125AM  24029.47328899  .00000035  00000-0  20266-4 0  9992,2 50191  53.2178 116.7582 0001406 103.2765 256.8384 15.08853943120172,6917.838,95.437,540.675,538.73,0.0
50191.0,STARLINK-3273,PAYLOAD,2024-01-30 11:12:20,15.08836431,0.0001556,53.2172,112.2992,107.5315,252.5848,6.4028e-06,-1.86e-06,0.0,0 STARLINK-3273,1 50191U 21125AM  24030.46689995 -.00000186  00000-0  64028-5 0  9993,2 50191  53.2172 112.2992 0001556 107.5315 252.5848 15.08836431117241,6917.891,95.438,540.833,538.68,0.0
50191.0,STARLINK-3273,PAYLOAD,2024-01-30 14:23:06,15.0884018,0.0001517,53.2173,111.6995,100.3158,259.8006,2.5976e-05,1.25e-06,0.0,0 STARLINK-3273,1 50191U 21125AM  24030.59937680  .00000125  00000-0  25976-4 0  9994,2 50191  53.2173 111.6995 0001517 100.3158 259.8006 15.08840180120348,6917.88,95.438,540.794,538.695,0.0
50191.0,STARLINK-3273,PAYLOAD,2024-01-31 11:03:06,15.08845294,0.0001541,53.2175,107.8356,97.071,263.0458,2.6811e-05,1.39e-06,0.0,0 STARLINK-3273,1 50191U 21125AM  24031.46049402  .00000139  00000-0  26811-4 0  9991,2 50191  53.2175 107.8356 0001541  97.0710 263.0458 15.08845294117391,6917.864,95.437,540.795,538.663,0.0
50191.0,STARLINK-3273,PAYLOAD,2024-01-31 14:13:52,15.08851157,0.000159,53.2172,107.2383,106.7241,253.3926,3.1514e-05,2.14e-06,0.0,0 STARLINK-3273,1 50191U 21125AM  24031.59296885  .00000214  00000-0  31514-4 0  9994,2 50191  53.2172 107.2383 0001590 106.7241 253.3926 15.08851157120495,6917.846,95.437,540.811,538.611,0.0
50191.0,STARLINK-3273,PAYLOAD,2024-02-01 10:53:54,15.08833953,0.0001672,53.2186,103.365,118.8359,241.2801,8.7168e-06,-1.49e-06,0.0,0 STARLINK-3273,1 50191U 21125AM  24032.45410225 -.00000149  00000-0  87168-5 0  9991,2 50191  53.2186 103.3650 0001672 118.8359 241.2801 15.08833953117543,6917.899,95.438,540.921,538.607,0.0
50191.0,STARLINK-3273,PAYLOAD,2024-02-02 10:44:39,15.08858567,0.000138,53.2179,98.911,108.5761,251.5381,0.00014836,2.075e-05,0.0,0 STARLINK-3273,1 50191U 21125AM  24033.44768383  .00002075  00000-0  14836-3 0  9991,2 50191  53.2179  98.9110 0001380 108.5761 251.5381 15.08858567117695,6917.824,95.436,540.643,538.734,0.0
50191.0,STARLINK-3273,PAYLOAD,2024-02-03 04:13:55,15.08842199,0.0001268,53.2188,95.643,100.5359,259.5776,4.2703e-05,3.92e-06,0.0,0 STARLINK-3273,1 50191U 21125AM  24034.17633784  .00000392  00000-0  42703-4 0  9993,2 50191  53.2188  95.6430 0001268 100.5359 259.5776 15.08842199117807,6917.874,95.437,540.616,538.861,0.0
50191.0,STARLINK-3273,PAYLOAD,2024-02-03 10:35:28,15.08841883,0.0001227,53.2175,94.4534,75.6238,284.489,4.2006e-05,3.81e-06,0.0,0 STARLINK-3273,1 50191U 21125AM  24034.44129923  .00000381  00000-0  42006-4 0  9992,2 50191  53.2175  94.4534 0001227  75.6238 284.4890 15.08841883120928,6917.875,95.437,540.588,538.891,0.0
